OBJECT_NAME,OBJECT_ID,EPOCH,MEAN_MOTION,ECCENTRICITY,INCLINATION,RA_OF_ASC_NODE,ARG_OF_PERICENTER,MEAN_ANOMALY,EPHEMERIS_TYPE,CLASSIFICATION_TYPE,NORAD_CAT_ID,ELEMENT_SET_NO,REV_AT_EPOCH,BSTAR,MEAN_MOTION_DOT,MEAN_MOTION_DDOT
STARLINK-1084,2020-001B,2023-06-14T06:23:19.588416,15.06399191,.0001133,53.0541,153.2045,84.6258,275.4860,0,U,44915,999,18921,.33575E-4,.219E-5,0
STARLINK-1098,2020-001D,2023-06-14T08:04:12.031968,15.06388696,.0001199,53.0522,152.8905,92.0374,268.0752,0,U,44917,999,18922,.17264E-5,-.256E-5,0
STARLINK-1099,2020-001E,2023-06-14T08:24:02.895264,15.06401952,.0001316,53.0537,152.8555,82.9156,277.1983,0,U,44918,999,18996,.94929E-4,.1133E-4,0
STARLINK-1102,2020-001G,2023-06-14T05:35:45.381696,15.20506414,.000273,53.0577,142.9389,11.8773,348.2286,0,U,44920,999,18935,.31308E-3,.6611E-4,0
STARLINK-1103,2020-001H,2023-06-14T10:47:18.069216,15.06431056,.0001177,53.0542,152.3737,74.4203,285.6916,0,U,44921,999,18921,.31996E-3,.4491E-4,0
STARLINK-1104,2020-001J,2023-06-13T22:52:10.477056,15.06397246,.0001265,53.0536,154.6098,82.8719,277.2414,0,U,44922,999,18916,.44551E-4,.382E-5,0
STARLINK-1106,2020-001K,2023-06-14T07:47:04.642656,15.14705337,.0003694,53.0532,148.2333,63.6873,296.4499,0,U,44923,999,18928,.40449E-3,.7281E-4,0
STARLINK-1111,2020-001L,2023-06-14T05:35:33.512064,15.06401702,.0001232,53.0541,153.3764,77.8947,282.2180,0,U,44924,999,18920,.7715E-4,.868E-5,0
STARLINK-1112,2020-001M,2023-06-14T07:32:19.312224,15.06400912,.0001061,53.0541,152.9888,89.6176,270.4934,0,U,44925,999,18921,.75005E-4,.836E-5,0
STARLINK-1113,2020-001N,2023-06-14T09:02:34.227456,15.06402444,.0001165,53.0553,152.7979,88.7289,271.3833,0,U,44926,999,18990,.84803E-4,.982E-5,0
STARLINK-1114,2020-001P,2023-06-14T09:23:47.315040,15.06400012,.0001116,53.0529,152.6413,86.9734,273.1383,0,U,44927,999,18923,.74464E-4,.828E-5,0
STARLINK-1119,2020-001Q,2023-06-14T10:54:00.982656,15.06400387,.00012,53.0537,152.3564,85.1655,274.9471,0,U,44928,999,18924,.93057E-4,.1105E-4,0
STARLINK-1121,2020-001R,2023-06-14T08:57:14.852448,15.06403420,.0000987,53.0533,152.7202,82.3024,277.8077,0,U,44929,999,18922,.79505E-4,.903E-5,0
STARLINK-1123,2020-001S,2023-06-14T08:09:28.899648,15.06398600,.0001255,53.0529,152.8716,77.3055,282.8074,0,U,44930,999,18922,.17074E-3,.2263E-4,0
STARLINK-1128,2020-001T,2023-06-14T07:15:10.737504,15.11175016,.0001172,53.0539,136.1682,99.0438,261.0686,0,U,44931,999,19019,.41153E-4,.404E-5,0
STARLINK-1130 (DARKSAT),2020-001U,2023-06-13T23:55:51.135168,15.06403536,.0001051,53.0534,154.4100,81.4474,278.6634,0,U,44932,999,19040,.1102E-3,.1361E-4,0
STARLINK-1144,2020-001V,2023-06-14T05:19:38.341056,15.06397689,.0001105,53.0536,153.4011,86.9801,273.1314,0,U,44933,999,19049,.48858E-4,.446E-5,0
STARLINK-1071,2020-001W,2023-06-14T04:02:40.236000,15.06402263,.0001356,53.0547,133.6399,93.5046,266.6098,0,U,44934,999,18947,.59394E-4,.603E-5,0
STARLINK-1079,2020-001Z,2023-06-14T08:17:25.906272,15.06409705,.0001226,53.0542,132.8462,99.5341,260.5786,0,U,44937,999,18950,.67155E-4,.719E-5,0
STARLINK-1082,2020-001AA,2023-06-14T04:18:35.168544,15.06405644,.000114,53.0545,133.5947,88.7454,271.3666,0,U,44938,999,18947,.67576E-4,.725E-5,0
STARLINK-1083,2020-001AB,2023-06-14T04:29:12.132672,15.06405532,.0001048,53.0545,133.5548,92.8639,267.2470,0,U,44939,999,18947,.90487E-4,.1067E-4,0
STARLINK-1091,2020-001AC,2023-06-14T04:45:07.596576,15.06403979,.0001182,53.0549,133.5084,85.9753,274.1371,0,U,44940,999,18947,.81894E-4,.939E-5,0
STARLINK-1094,2020-001AD,2023-06-14T08:28:02.927424,15.06404173,.0001238,53.0545,132.8133,91.7594,268.3537,0,U,44941,999,18950,.62797E-4,.654E-5,0
STARLINK-1096,2020-001AE,2023-06-14T06:32:32.420544,15.21089730,.0001665,53.0563,114.3752,291.6486,68.4332,0,U,44942,999,18976,.45564E-3,.9946E-4,0
STARLINK-1100,2020-001AF,2023-06-14T04:23:53.511072,15.06409270,.0000982,53.0542,133.5714,96.7714,263.3386,0,U,44943,999,18947,.59545E-4,.606E-5,0
STARLINK-1108,2020-001AG,2023-06-14T07:08:26.332800,15.06403071,.000123,53.0546,133.0607,85.1752,274.9377,0,U,44944,999,18949,.81545E-4,.934E-5,0
STARLINK-1109,2020-001AH,2023-06-14T04:39:48.929184,15.06406378,.000128,53.0542,133.5245,88.2946,271.8189,0,U,44945,999,18947,.73249E-4,.81E-5,0
STARLINK-1110,2020-001AJ,2023-06-13T20:24:31.834944,15.38767474,.0009248,53.0163,77.7755,66.9034,293.2942,0,U,44946,999,19018,.4117E-3,.15669E-3,0
STARLINK-1122,2020-001AM,2023-06-14T04:13:17.320224,15.06401269,.0001155,53.0542,133.6069,82.7448,277.3672,0,U,44949,999,18947,.87903E-4,.1028E-4,0
STARLINK-1126,2020-001AP,2023-06-14T04:13:04.607328,15.44988483,.0008397,53.0207,73.9579,60.2688,299.9152,0,U,44951,999,19155,.52018E-3,.24588E-3,0
