STARLINK-1084           
1 44915U 20001B   23165.26619894  .00000219  00000+0  33575-4 0  9996
2 44915  53.0541 153.2045 0001133  84.6258 275.4860 15.06399191189211
STARLINK-1098           
1 44917U 20001D   23165.33625037 -.00000256  00000+0  17264-5 0  9992
2 44917  53.0522 152.8905 0001199  92.0374 268.0752 15.06388696189223
STARLINK-1099           
1 44918U 20001E   23165.35003351  .00001133  00000+0  94929-4 0  9990
2 44918  53.0537 152.8555 0001316  82.9156 277.1983 15.06401952189967
STARLINK-1102           
1 44920U 20001G   23165.23316414  .00006611  00000+0  31308-3 0  9994
2 44920  53.0577 142.9389 0002730  11.8773 348.2286 15.20506414189350
STARLINK-1103           
1 44921U 20001H   23165.44951469  .00004491  00000+0  31996-3 0  9990
2 44921  53.0542 152.3737 0001177  74.4203 285.6916 15.06431056189214
STARLINK-1104           
1 44922U 20001J   23164.95289904  .00000382  00000+0  44551-4 0  9991
2 44922  53.0536 154.6098 0001265  82.8719 277.2414 15.06397246189162
STARLINK-1106           
1 44923U 20001K   23165.32435929  .00007281  00000+0  40449-3 0  9990
2 44923  53.0532 148.2333 0003694  63.6873 296.4499 15.14705337189288
STARLINK-1111           
1 44924U 20001L   23165.23302676  .00000868  00000+0  77150-4 0  9997
2 44924  53.0541 153.3764 0001232  77.8947 282.2180 15.06401702189201
STARLINK-1112           
1 44925U 20001M   23165.31411241  .00000836  00000+0  75005-4 0  9998
2 44925  53.0541 152.9888 0001061  89.6176 270.4934 15.06400912189218
STARLINK-1113           
1 44926U 20001N   23165.37678504  .00000982  00000+0  84803-4 0  9990
2 44926  53.0553 152.7979 0001165  88.7289 271.3833 15.06402444189907
STARLINK-1114           
1 44927U 20001P   23165.39151985  .00000828  00000+0  74464-4 0  9993
2 44927  53.0529 152.6413 0001116  86.9734 273.1383 15.06400012189239
STARLINK-1119           
1 44928U 20001Q   23165.45417804  .00001105  00000+0  93057-4 0  9994
2 44928  53.0537 152.3564 0001200  85.1655 274.9471 15.06400387189243
STARLINK-1121           
1 44929U 20001R   23165.37308857  .00000903  00000+0  79505-4 0  9990
2 44929  53.0533 152.7202 0000987  82.3024 277.8077 15.06403420189226
STARLINK-1123           
1 44930U 20001S   23165.33991782  .00002263  00000+0  17074-3 0  9996
2 44930  53.0529 152.8716 0001255  77.3055 282.8074 15.06398600189227
STARLINK-1128           
1 44931U 20001T   23165.30220761  .00000404  00000+0  41153-4 0  9997
2 44931  53.0539 136.1682 0001172  99.0438 261.0686 15.11175016190196
STARLINK-1130 (DARKSAT) 
1 44932U 20001U   23164.99711962  .00001361  00000+0  11020-3 0  9992
2 44932  53.0534 154.4100 0001051  81.4474 278.6634 15.06403536190407
STARLINK-1144           
1 44933U 20001V   23165.22197154  .00000446  00000+0  48858-4 0  9994
2 44933  53.0536 153.4011 0001105  86.9801 273.1314 15.06397689190499
STARLINK-1071           
1 44934U 20001W   23165.16852125  .00000603  00000+0  59394-4 0  9996
2 44934  53.0547 133.6399 0001356  93.5046 266.6098 15.06402263189471
STARLINK-1079           
1 44937U 20001Z   23165.34543873  .00000719  00000+0  67155-4 0  9998
2 44937  53.0542 132.8462 0001226  99.5341 260.5786 15.06409705189500
STARLINK-1082           
1 44938U 20001AA  23165.17957371  .00000725  00000+0  67576-4 0  9996
2 44938  53.0545 133.5947 0001140  88.7454 271.3666 15.06405644189471
STARLINK-1083           
1 44939U 20001AB  23165.18694598  .00001067  00000+0  90487-4 0  9994
2 44939  53.0545 133.5548 0001048  92.8639 267.2470 15.06405532189470
STARLINK-1091           
1 44940U 20001AC  23165.19800459  .00000939  00000+0  81894-4 0  9991
2 44940  53.0549 133.5084 0001182  85.9753 274.1371 15.06403979189470
STARLINK-1094           
1 44941U 20001AD  23165.35281166  .00000654  00000+0  62797-4 0  9993
2 44941  53.0545 132.8133 0001238  91.7594 268.3537 15.06404173189504
STARLINK-1096           
1 44942U 20001AE  23165.27259746  .00009946  00000+0  45564-3 0  9999
2 44942  53.0563 114.3752 0001665 291.6486  68.4332 15.21089730189767
STARLINK-1100           
1 44943U 20001AF  23165.18325823  .00000606  00000+0  59545-4 0  9999
2 44943  53.0542 133.5714 0000982  96.7714 263.3386 15.06409270189476
STARLINK-1108           
1 44944U 20001AG  23165.29752700  .00000934  00000+0  81545-4 0  9999
2 44944  53.0546 133.0607 0001230  85.1752 274.9377 15.06403071189491
STARLINK-1109           
1 44945U 20001AH  23165.19431631  .00000810  00000+0  73249-4 0  9991
2 44945  53.0542 133.5245 0001280  88.2946 271.8189 15.06406378189473
STARLINK-1110           
1 44946U 20001AJ  23164.85036846  .00015669  00000+0  41170-3 0  9998
2 44946  53.0163  77.7755 0009248  66.9034 293.2942 15.38767474190188
STARLINK-1122           
1 44949U 20001AM  23165.17589491  .00001028  00000+0  87903-4 0  9995
2 44949  53.0542 133.6069 0001155  82.7448 277.3672 15.06401269189471
STARLINK-1126           
1 44951U 20001AP  23165.17574777  .00024588  00000+0  52018-3 0  9993
2 44951  53.0207  73.9579 0008397  60.2688 299.9152 15.44988483191551
